[{"OBJECT_NAME":"STARLINK-11529 [DTC]","OBJECT_ID":"2025-008N","EPOCH":"2026-03-09T10:19:56.360352","MEAN_MOTION":15.70865981,"ECCENTRICITY":5.522e-5,"INCLINATION":42.9995,"RA_OF_ASC_NODE":127.7082,"ARG_OF_PERICENTER":289.9123,"MEAN_ANOMALY":70.1685,"EPHEMERIS_TYPE":0,"CLASSIFICATION_TYPE":"U","NORAD_CAT_ID":62599,"ELEMENT_SET_NO":999,"REV_AT_EPOCH":6725,"BSTAR":0.0014478625,"MEAN_MOTION_DOT":0.00189844,"MEAN_MOTION_DDOT":0},{"OBJECT_NAME":"H-2A R\/B","OBJECT_ID":"2024-176B","EPOCH":"2026-03-09T21:03:59.315040","MEAN_MOTION":15.71096114,"ECCENTRICITY":0.00080006,"INCLINATION":97.2628,"RA_OF_ASC_NODE":207.174,"ARG_OF_PERICENTER":279.669,"MEAN_ANOMALY":80.367,"EPHEMERIS_TYPE":0,"CLASSIFICATION_TYPE":"U","NORAD_CAT_ID":61440,"ELEMENT_SET_NO":999,"REV_AT_EPOCH":8169,"BSTAR":0.00086786138,"MEAN_MOTION_DOT":0.00110274,"MEAN_MOTION_DDOT":0}]
